<?xml version="1.0" encoding="UTF-8"?>
<ndm xmlns:xsi="http://www.w3.org/2001/XMLSchema-instance" xsi:noNamespaceSchemaLocation="https://sanaregistry.org/r/ndmxml_unqualified/ndmxml-2.0.0-master-2.0.xsd">
<omm id="CCSDS_OMM_VERS" version="2.0">
<header><CREATION_DATE/><ORIGINATOR/></header><body><segment><metadata><OBJECT_NAME>KUIPER-00061</OBJECT_NAME><OBJECT_ID>2025-134X</OBJECT_ID><CENTER_NAME>EARTH</CENTER_NAME><REF_FRAME>TEME</REF_FRAME><TIME_SYSTEM>UTC</TIME_SYSTEM><MEAN_ELEMENT_THEORY>SGP4</MEAN_ELEMENT_THEORY></metadata><data><meanElements><EPOCH>2025-08-12T01:08:37.640832</EPOCH><MEAN_MOTION>15.36079134</MEAN_MOTION><ECCENTRICITY>.000619</ECCENTRICITY><INCLINATION>51.8735</INCLINATION><RA_OF_ASC_NODE>91.8583</RA_OF_ASC_NODE><ARG_OF_PERICENTER>284.5174</ARG_OF_PERICENTER><MEAN_ANOMALY>75.5125</MEAN_ANOMALY></meanElements><tleParameters><EPHEMERIS_TYPE>0</EPHEMERIS_TYPE><CLASSIFICATION_TYPE>U</CLASSIFICATION_TYPE><NORAD_CAT_ID>64521</NORAD_CAT_ID><ELEMENT_SET_NO>999</ELEMENT_SET_NO><REV_AT_EPOCH>885</REV_AT_EPOCH><BSTAR>.1603E-2</BSTAR><MEAN_MOTION_DOT>.5728E-3</MEAN_MOTION_DOT><MEAN_MOTION_DDOT>0</MEAN_MOTION_DDOT></tleParameters></data></segment></body></omm>
<omm id="CCSDS_OMM_VERS" version="2.0">
<header><CREATION_DATE/><ORIGINATOR/></header><body><segment><metadata><OBJECT_NAME>KUIPER-00062</OBJECT_NAME><OBJECT_ID>2025-134Y</OBJECT_ID><CENTER_NAME>EARTH</CENTER_NAME><REF_FRAME>TEME</REF_FRAME><TIME_SYSTEM>UTC</TIME_SYSTEM><MEAN_ELEMENT_THEORY>SGP4</MEAN_ELEMENT_THEORY></metadata><data><meanElements><EPOCH>2025-08-12T18:00:02.000160</EPOCH><MEAN_MOTION>15.20591171</MEAN_MOTION><ECCENTRICITY>.0007422</ECCENTRICITY><INCLINATION>51.8838</INCLINATION><RA_OF_ASC_NODE>89.4195</RA_OF_ASC_NODE><ARG_OF_PERICENTER>296.0923</ARG_OF_PERICENTER><MEAN_ANOMALY>277.9804</MEAN_ANOMALY></meanElements><tleParameters><EPHEMERIS_TYPE>0</EPHEMERIS_TYPE><CLASSIFICATION_TYPE>U</CLASSIFICATION_TYPE><NORAD_CAT_ID>64522</NORAD_CAT_ID><ELEMENT_SET_NO>999</ELEMENT_SET_NO><REV_AT_EPOCH>580</REV_AT_EPOCH><BSTAR>-.23368E-1</BSTAR><MEAN_MOTION_DOT>-.486726E-2</MEAN_MOTION_DOT><MEAN_MOTION_DDOT>0</MEAN_MOTION_DDOT></tleParameters></data></segment></body></omm>
<omm id="CCSDS_OMM_VERS" version="2.0">
<header><CREATION_DATE/><ORIGINATOR/></header><body><segment><metadata><OBJECT_NAME>KUIPER-00063</OBJECT_NAME><OBJECT_ID>2025-134Z</OBJECT_ID><CENTER_NAME>EARTH</CENTER_NAME><REF_FRAME>TEME</REF_FRAME><TIME_SYSTEM>UTC</TIME_SYSTEM><MEAN_ELEMENT_THEORY>SGP4</MEAN_ELEMENT_THEORY></metadata><data><meanElements><EPOCH>2025-08-12T18:00:02.000160</EPOCH><MEAN_MOTION>15.23879398</MEAN_MOTION><ECCENTRICITY>.000421</ECCENTRICITY><INCLINATION>51.8779</INCLINATION><RA_OF_ASC_NODE>88.7541</RA_OF_ASC_NODE><ARG_OF_PERICENTER>240.2784</ARG_OF_PERICENTER><MEAN_ANOMALY>269.8817</MEAN_ANOMALY></meanElements><tleParameters><EPHEMERIS_TYPE>0</EPHEMERIS_TYPE><CLASSIFICATION_TYPE>U</CLASSIFICATION_TYPE><NORAD_CAT_ID>64523</NORAD_CAT_ID><ELEMENT_SET_NO>999</ELEMENT_SET_NO><REV_AT_EPOCH>457</REV_AT_EPOCH><BSTAR>-.28512E-1</BSTAR><MEAN_MOTION_DOT>-.648445E-2</MEAN_MOTION_DOT><MEAN_MOTION_DDOT>0</MEAN_MOTION_DDOT></tleParameters></data></segment></body></omm>
<omm id="CCSDS_OMM_VERS" version="2.0">
<header><CREATION_DATE/><ORIGINATOR/></header><body><segment><metadata><OBJECT_NAME>KUIPER-00064</OBJECT_NAME><OBJECT_ID>2025-134AA</OBJECT_ID><CENTER_NAME>EARTH</CENTER_NAME><REF_FRAME>TEME</REF_FRAME><TIME_SYSTEM>UTC</TIME_SYSTEM><MEAN_ELEMENT_THEORY>SGP4</MEAN_ELEMENT_THEORY></metadata><data><meanElements><EPOCH>2025-08-12T18:00:02.000160</EPOCH><MEAN_MOTION>15.28049382</MEAN_MOTION><ECCENTRICITY>.0001198</ECCENTRICITY><INCLINATION>51.8817</INCLINATION><RA_OF_ASC_NODE>88.3569</RA_OF_ASC_NODE><ARG_OF_PERICENTER>331.6934</ARG_OF_PERICENTER><MEAN_ANOMALY>33.4987</MEAN_ANOMALY></meanElements><tleParameters><EPHEMERIS_TYPE>0</EPHEMERIS_TYPE><CLASSIFICATION_TYPE>U</CLASSIFICATION_TYPE><NORAD_CAT_ID>64524</NORAD_CAT_ID><ELEMENT_SET_NO>999</ELEMENT_SET_NO><REV_AT_EPOCH>479</REV_AT_EPOCH><BSTAR>-.12423E-2</BSTAR><MEAN_MOTION_DOT>-.34662E-3</MEAN_MOTION_DOT><MEAN_MOTION_DDOT>0</MEAN_MOTION_DDOT></tleParameters></data></segment></body></omm>
<omm id="CCSDS_OMM_VERS" version="2.0">
<header><CREATION_DATE/><ORIGINATOR/></header><body><segment><metadata><OBJECT_NAME>KUIPER-00065</OBJECT_NAME><OBJECT_ID>2025-134AB</OBJECT_ID><CENTER_NAME>EARTH</CENTER_NAME><REF_FRAME>TEME</REF_FRAME><TIME_SYSTEM>UTC</TIME_SYSTEM><MEAN_ELEMENT_THEORY>SGP4</MEAN_ELEMENT_THEORY></metadata><data><meanElements><EPOCH>2025-08-12T18:00:02.000160</EPOCH><MEAN_MOTION>15.15794889</MEAN_MOTION><ECCENTRICITY>.0007458</ECCENTRICITY><INCLINATION>51.8833</INCLINATION><RA_OF_ASC_NODE>89.8870</RA_OF_ASC_NODE><ARG_OF_PERICENTER>303.1656</ARG_OF_PERICENTER><MEAN_ANOMALY>314.7908</MEAN_ANOMALY></meanElements><tleParameters><EPHEMERIS_TYPE>0</EPHEMERIS_TYPE><CLASSIFICATION_TYPE>U</CLASSIFICATION_TYPE><NORAD_CAT_ID>64525</NORAD_CAT_ID><ELEMENT_SET_NO>999</ELEMENT_SET_NO><REV_AT_EPOCH>414</REV_AT_EPOCH><BSTAR>-.53099E-3</BSTAR><MEAN_MOTION_DOT>-.10574E-3</MEAN_MOTION_DOT><MEAN_MOTION_DDOT>0</MEAN_MOTION_DDOT></tleParameters></data></segment></body></omm>
<omm id="CCSDS_OMM_VERS" version="2.0">
<header><CREATION_DATE/><ORIGINATOR/></header><body><segment><metadata><OBJECT_NAME>KUIPER-00066</OBJECT_NAME><OBJECT_ID>2025-134AC</OBJECT_ID><CENTER_NAME>EARTH</CENTER_NAME><REF_FRAME>TEME</REF_FRAME><TIME_SYSTEM>UTC</TIME_SYSTEM><MEAN_ELEMENT_THEORY>SGP4</MEAN_ELEMENT_THEORY></metadata><data><meanElements><EPOCH>2025-08-12T18:00:02.000160</EPOCH><MEAN_MOTION>15.29140319</MEAN_MOTION><ECCENTRICITY>.0002147</ECCENTRICITY><INCLINATION>51.8821</INCLINATION><RA_OF_ASC_NODE>88.3743</RA_OF_ASC_NODE><ARG_OF_PERICENTER>253.5279</ARG_OF_PERICENTER><MEAN_ANOMALY>80.6317</MEAN_ANOMALY></meanElements><tleParameters><EPHEMERIS_TYPE>0</EPHEMERIS_TYPE><CLASSIFICATION_TYPE>U</CLASSIFICATION_TYPE><NORAD_CAT_ID>64526</NORAD_CAT_ID><ELEMENT_SET_NO>999</ELEMENT_SET_NO><REV_AT_EPOCH>579</REV_AT_EPOCH><BSTAR>-.41123E-1</BSTAR><MEAN_MOTION_DOT>-.1080647E-1</MEAN_MOTION_DOT><MEAN_MOTION_DDOT>0</MEAN_MOTION_DDOT></tleParameters></data></segment></body></omm>
<omm id="CCSDS_OMM_VERS" version="2.0">
<header><CREATION_DATE/><ORIGINATOR/></header><body><segment><metadata><OBJECT_NAME>KUIPER-00069</OBJECT_NAME><OBJECT_ID>2025-151A</OBJECT_ID><CENTER_NAME>EARTH</CENTER_NAME><REF_FRAME>TEME</REF_FRAME><TIME_SYSTEM>UTC</TIME_SYSTEM><MEAN_ELEMENT_THEORY>SGP4</MEAN_ELEMENT_THEORY></metadata><data><meanElements><EPOCH>2025-08-12T12:47:03.160608</EPOCH><MEAN_MOTION>15.36039278</MEAN_MOTION><ECCENTRICITY>.000483</ECCENTRICITY><INCLINATION>51.8787</INCLINATION><RA_OF_ASC_NODE>156.1084</RA_OF_ASC_NODE><ARG_OF_PERICENTER>232.3815</ARG_OF_PERICENTER><MEAN_ANOMALY>127.6733</MEAN_ANOMALY></meanElements><tleParameters><EPHEMERIS_TYPE>0</EPHEMERIS_TYPE><CLASSIFICATION_TYPE>U</CLASSIFICATION_TYPE><NORAD_CAT_ID>64816</NORAD_CAT_ID><ELEMENT_SET_NO>999</ELEMENT_SET_NO><REV_AT_EPOCH>536</REV_AT_EPOCH><BSTAR>.53182E-3</BSTAR><MEAN_MOTION_DOT>.18619E-3</MEAN_MOTION_DOT><MEAN_MOTION_DDOT>0</MEAN_MOTION_DDOT></tleParameters></data></segment></body></omm>
<omm id="CCSDS_OMM_VERS" version="2.0">
<header><CREATION_DATE/><ORIGINATOR/></header><body><segment><metadata><OBJECT_NAME>KUIPER-00070</OBJECT_NAME><OBJECT_ID>2025-151B</OBJECT_ID><CENTER_NAME>EARTH</CENTER_NAME><REF_FRAME>TEME</REF_FRAME><TIME_SYSTEM>UTC</TIME_SYSTEM><MEAN_ELEMENT_THEORY>SGP4</MEAN_ELEMENT_THEORY></metadata><data><meanElements><EPOCH>2025-08-12T18:00:02.000160</EPOCH><MEAN_MOTION>15.21188190</MEAN_MOTION><ECCENTRICITY>.0006614</ECCENTRICITY><INCLINATION>51.8885</INCLINATION><RA_OF_ASC_NODE>156.0348</RA_OF_ASC_NODE><ARG_OF_PERICENTER>267.6823</ARG_OF_PERICENTER><MEAN_ANOMALY>120.2088</MEAN_ANOMALY></meanElements><tleParameters><EPHEMERIS_TYPE>0</EPHEMERIS_TYPE><CLASSIFICATION_TYPE>U</CLASSIFICATION_TYPE><NORAD_CAT_ID>64817</NORAD_CAT_ID><ELEMENT_SET_NO>999</ELEMENT_SET_NO><REV_AT_EPOCH>418</REV_AT_EPOCH><BSTAR>-.24415E-2</BSTAR><MEAN_MOTION_DOT>-.55122E-3</MEAN_MOTION_DOT><MEAN_MOTION_DDOT>0</MEAN_MOTION_DDOT></tleParameters></data></segment></body></omm>

</ndm>
