KUIPER-00061            
1 64521U 25134X   25224.04765788  .00057280  00000+0  16030-2 0  9996
2 64521  51.8735  91.8583 0006190 284.5174  75.5125 15.36079134  8855
KUIPER-00062            
1 64522U 25134Y   25224.75002315 -.00486726  00000+0 -23368-1 0  9999
2 64522  51.8838  89.4195 0007422 296.0923 277.9804 15.20591171  5808
KUIPER-00063            
1 64523U 25134Z   25224.75002315 -.00648445  00000+0 -28512-1 0  9994
2 64523  51.8779  88.7541 0004210 240.2784 269.8817 15.23879398  4578
KUIPER-00064            
1 64524U 25134AA  25224.75002315 -.00034662  00000+0 -12423-2 0  9990
2 64524  51.8817  88.3569 0001198 331.6934  33.4987 15.28049382  4796
KUIPER-00065            
1 64525U 25134AB  25224.75002315 -.00010574  00000+0 -53099-3 0  9992
2 64525  51.8833  89.8870 0007458 303.1656 314.7908 15.15794889  4148
KUIPER-00066            
1 64526U 25134AC  25224.75002315 -.01080647  00000+0 -41123-1 0  9995
2 64526  51.8821  88.3743 0002147 253.5279  80.6317 15.29140319  5791
KUIPER-00069            
1 64816U 25151A   25224.53267547  .00018619  00000+0  53182-3 0  9999
2 64816  51.8787 156.1084 0004830 232.3815 127.6733 15.36039278  5364
KUIPER-00070            
1 64817U 25151B   25224.75002315 -.00055122  00000+0 -24415-2 0  9992
2 64817  51.8885 156.0348 0006614 267.6823 120.2088 15.21188190  4181
